#dP2019  7  8  0  0  0.00000000      96 __u+U ITR00 FIT  IAC
## 2061  86400.00000000   900.00000000 58672 0.0000000000000
+   99   C01C02C03C04C05C06C07C08C09C10C11C12C13C14C16E01E02
+        E03E04E05E07E08E09E11E12E13E14E15E18E19E21E24E25E26
+        E27E30E31E33E36G01G02G03G05G06G07G08G09G10G11G12G13
+        G14G15G16G17G18G19G20G21G22G23G24G25G26G27G28G29G30
+        G31G32J01J02J03J07R01R02R03R04R05R06R07R08R09R10R11
+        R12R13R14R15R16R17R18R19R20R21R22R23R24R26  0  0  0
++         0 12 13 13 13  8  9  8  8  8  8  8  8  7  8  5  5
++         5  5  5  5  5  5  5  5  5  5  5  5  4  4  5  5  4
++         4  5  5  5  5  3  3  3  3  3  3  3  3  3  3  3  3
++         3  3  3  3  3  3  3  3  3  3  3  3  4  3  3  3  3
++         3  4  8  8  8 13  5  5  5  5  5 10  5  5  5  5  5
++         5  6  5  5  6  5  5  6  6  5  5  5  6  8  0  0  0
%c M  cc GPS ccc cccc cccc cccc cccc ccccc ccccc ccccc ccccc
%c cc cc ccc ccc cccc cccc cccc cccc ccccc ccccc ccccc ccccc
%f  0.0000000  0.000000000  0.00000000000  0.000000000000000
%f  0.0000000  0.000000000  0.00000000000  0.000000000000000
%i    0    0    0    0      0      0      0      0         0
%i    0    0    0    0      0      0      0      0         0
/* INFORMATION & ANALYSIS CENTER (IAC) OF MCC   (RAPID DATA)
/* S/V CLOCKS ARE ALIGNED TO GPS & GLONASS TIME RESPECTIVELY
/* USING THE BROADCAST EPHEMERIS                            
/* PCV:IGS14_2056 OL/AL:FES2004  NONE     YN ORB:CoN CLK:CoN
*  2019 07 08 23 30  0.00000000
PC01      0.000000      0.000000      0.000000 999999.999999
PC02   4394.341601  41903.343021  -1401.548372     47.093642
PC03 -14767.554420  39467.695077   -158.106038    710.503456
PC04 -39617.178980  14431.452059    318.632069     85.527036
PC05  21926.239847  35964.646207  -1080.868408   -360.119841
PC06 -10626.943725  36665.805713 -17162.378680    561.657401
PC07 -13428.107508  22398.012170  33219.924784      8.463503
PC08 -24246.645031  29503.989368 -18119.769867    167.947117
PC09  -1606.640936  41840.209509  -2664.794894   -201.818184
PC10   3580.386200  28082.162727  31500.124002     30.558923
PC11  10412.956155 -25813.134632  -1426.195373    234.441355
PC12  16641.230622  -3351.278538 -22073.923308    844.636177
PC13 -12371.300132  30163.734170 -26820.095912   -829.615559
PC14  11984.103447 -10684.321229  22892.724405    536.844082
PC16  -8580.228224  38082.685475 -15679.225234   -895.660094
PE01   8886.698785  17112.010183  22461.796435   -643.013323
PE02  -8943.982077 -17108.048081 -22438.416990     68.419495
PE03  -7402.738500 -28562.220720   2254.854728   -186.133817
PE04  17307.784825  18514.167753  15307.087147   -319.331334
PE05   6917.995994 -21944.593814  18627.870691   -468.114292
PE07 -17103.397568   2544.490213 -24009.726974   -222.696363
PE08 -17381.847562 -18304.671385 -15436.788837   6327.068299
PE09  16956.340562  -2648.536749  24131.326037   6384.681390
PE11  23150.288170 -11600.652909 -14366.956675   5658.611412
PE12  14969.228487   7571.402781 -24391.327586   6307.615236
PE13 -23038.402871  11617.872604  14502.023548    389.700696
PE14  14364.150810 -22331.666165 -15004.799449   -635.527690
PE15 -15183.326177  -7128.685902  24390.579609    903.918336
PE18  -3381.431288  26699.227008    652.971744   -731.331679
PE19   6153.369278  28657.177549  -4122.492974     -5.275537
PE21 -13463.071843  12697.231402  23097.386523   -543.162381
PE24  27724.230159   -865.277892 -10332.050129   5987.152053
PE25  13555.705712 -12656.704424 -23067.173567   1748.574716
PE26 -17546.188868  23509.501135  -3964.115759   4362.521978
PE27 -27813.632086    811.715910  10089.783144    433.008346
PE30 -25834.720533 -11594.707862  -8627.765596   4726.316854
PE31  25807.431634  11528.441750   8818.726178   -466.306404
PE33  -1581.662487  21742.360045 -20018.631955   -469.840753
PE36  17415.543055 -23615.165617   3919.832385    689.900101
PG01  -5519.204009  17635.190420 -19145.575552    -62.065586
PG02  21346.101647 -15546.977084   2553.160761   -255.766763
PG03   5206.890368  18340.782605 -18575.211208    182.126932
PG05  15322.753382  -7804.788463  20169.662412      0.142385
PG06  23746.027786  -4466.637288 -11024.617703    155.192868
PG07  10250.387730  11953.620356  21700.302959    -60.475815
PG08  -5492.528267  24749.587988   7586.557724   -150.478445
PG09   8878.375403  21471.662407  12820.817022    375.034503
PG10 -23947.383181 -10683.149174  -4797.375578     -9.673371
PG11  -5433.056964  23466.362443 -12011.403778   -565.866270
PG12  -1750.971550 -17640.401559 -20046.974793    225.707767
PG13  12691.057146 -18361.898096  14245.806578    -55.495323
PG14 -15234.847534   3497.211760 -21124.245367    -72.430005
PG15   3124.388497 -25279.929733   6503.383663   -302.123083
PG16 -15728.864534   5461.797124  20608.360057    -54.609644
PG17  13860.233566   5884.998972 -21485.453428     85.341932
PG18 -13373.719161  19062.421823 -13159.066193     68.339950
PG19  15098.147846  -1754.718002 -22091.580247   -296.604134
PG20 -22056.976939 -14074.812959   4936.310898    525.845224
PG21 -14898.931562  -8483.276779  21045.514953   -158.288626
PG22  -2425.060907  16188.972920 -20700.174332   -728.430014
PG23    821.647287  26306.749901   1351.934995   -178.141608
PG24   7683.286068 -19105.481064 -16747.505977    -68.577551
PG25 -14835.630436 -18789.836433 -11981.117167   -771.974581
PG26 -22385.806155  -1076.656442  14369.120905    246.540917
PG27 -12017.076354  15895.125188  17294.082330   -179.557545
PG28  22475.117758  13180.001257  -4267.156857    766.683603
PG29  -4587.202955 -24067.829152  10201.206154    156.353420
PG30  19569.758367   4607.234886  17481.454574   -139.350130
PG31 -24585.448309   5168.837399  -9282.563768     25.626522
PG32 -14978.563874  -4792.324020 -21353.218999    -10.724425
PJ01 -21829.402046  19487.278995 -25738.586959   -275.684754
PJ02 -30295.639434  23400.384893  22368.731274     -0.960460
PJ03 -27581.703945  27740.157243  20619.062611      1.790553
PJ07 -25391.335541  33658.615763    -43.361749     -0.058795
PR01   1347.044890 -16163.871615  19687.548803     46.455589
PR02 -11667.514965 -22576.231862   2544.410620    377.400038
PR03 -15958.051673 -13849.463827 -14277.475707     -2.018408
PR04 -10625.678691   3458.569630 -22909.668307    313.078936
PR05    341.678145  17691.118660 -18349.768252     31.542495
PR06  12549.889694  22137.622815  -1581.187094    157.747562
PR07  15930.674307  13326.721625  14822.781417    -23.105238
PR08  11036.397063  -2730.631127  22890.687319     16.840086
PR09  12697.242443   9674.348492  19935.691883     79.130276
PR10  23706.340685   4174.355150   8554.870821     53.991949
PR11  23121.292188  -4747.160995  -9723.329584    -72.061973
PR12   9627.929455 -10086.448579 -21326.699122     41.905010
PR13 -10578.025478  -9792.520152 -21056.227433    -25.712021
PR14 -23751.053708  -3962.971596  -8373.431200     40.747394
PR15 -23480.124125   4278.728060   9017.848797    102.990395
PR16  -9425.974289  10432.745624  21289.622098      7.674854
PR17 -10445.943684  -3065.392770  23072.893587    242.101942
PR18 -15621.015586  13075.456279  15322.517016     -0.420547
PR19 -13013.661013  21930.495884   -677.032679    -40.923436
PR20  -1553.599297  17992.311332 -17992.074051   -383.712729
PR21  10693.460239   2416.331575 -23035.416028    -58.661019
PR22  15782.330358 -15308.319801 -13041.051296    -27.559611
PR23  10007.613010 -22631.977628   6179.200708    239.444271
PR24    -62.915037 -16901.813227  19079.695016   -182.410826
PR26  -3203.690979  19703.818503 -15888.474941    -17.683563
EOF
